ONEWEB-0533             
1 55141U 23004B   23338.55776310  .00000112  00000+0  27521-3 0  9991
2 55141  87.9077 174.7174 0001410  80.2819 279.8469 13.12441455 46646
ONEWEB-0541             
1 55142U 23004C   23338.55123108  .00000525  00000+0  14467-2 0  9995
2 55142  87.8977 204.9904 0001636  75.6391 284.4919 13.11415606 44621
ONEWEB-0544             
1 55144U 23004E   23338.66668981 -.00044516  00000+0 -11362+0 0  9990
2 55144  87.9120 159.6941 0001963  94.4901 145.3399 13.18614027  5269
ONEWEB-0565             
1 55146U 23004G   23338.66668981 -.00042708  00000+0 -10884+0 0  9991
2 55146  87.9139 159.7124 0002326  99.8146 199.1166 13.18703319  5339
ONEWEB-0569             
1 55148U 23004J   23338.66668981 -.01352561  00000+0 -59836+0 0  9995
2 55148  86.9285 147.7079 0002869 147.0719 318.1468 14.27053351  5616
